[
    {
        "Altitude(m)": 705569.1206020978,
        "Argument of Periapsis(deg)": 0.009112096949301655,
        "Eccentricity": 0.0,
        "Inclination(deg)": 45.0,
        "Latitude(deg)": 37.13068949108799,
        "Longitude(deg)": -86.75586579160982,
        "Mean Anomaly(deg)": -301.68252668201535,
        "RAAN(deg)": 324.9913984468334,
        "Satellite Name": "Constellation 1 1433",
        "Satellite Number": 1433,
        "Semi-Major Axis(m)": 7083131.272910544,
        "Time(s)": 152
    },
    {
        "Altitude(m)": 705574.8605547374,
        "Argument of Periapsis(deg)": 0.009172044955547059,
        "Eccentricity": 0.0,
        "Inclination(deg)": 45.0,
        "Latitude(deg)": 37.15901049531467,
        "Longitude(deg)": -86.69267254579793,
        "Mean Anomaly(deg)": -301.6218255417655,
        "RAAN(deg)": 324.99134185766786,
        "Satellite Name": "Constellation 1 1433",
        "Satellite Number": 1433,
        "Semi-Major Axis(m)": 7083131.272910544,
        "Time(s)": 153
    },
    {
        "Altitude(m)": 705580.5962811252,
        "Argument of Periapsis(deg)": 0.009231992961792466,
        "Eccentricity": 0.0,
        "Inclination(deg)": 45.0,
        "Latitude(deg)": 37.187293127169376,
        "Longitude(deg)": -86.629429139196,
        "Mean Anomaly(deg)": -301.56112440151554,
        "RAAN(deg)": 324.9912852685023,
        "Satellite Name": "Constellation 1 1433",
        "Satellite Number": 1433,
        "Semi-Major Axis(m)": 7083131.272910544,
        "Time(s)": 154
    },
    {
        "Altitude(m)": 705586.3277455812,
        "Argument of Periapsis(deg)": 0.009291940968037872,
        "Eccentricity": 0.0,
        "Inclination(deg)": 45.0,
        "Latitude(deg)": 37.215537319509544,
        "Longitude(deg)": -86.56613555097051,
        "Mean Anomaly(deg)": -301.50042326126567,
        "RAAN(deg)": 324.99122867933676,
        "Satellite Name": "Constellation 1 1433",
        "Satellite Number": 1433,
        "Semi-Major Axis(m)": 7083131.272910544,
        "Time(s)": 155
    },
    {
        "Altitude(m)": 705592.0549124762,
        "Argument of Periapsis(deg)": 0.009351888974283276,
        "Eccentricity": 0.0,
        "Inclination(deg)": 45.0,
        "Latitude(deg)": 37.24374300514796,
        "Longitude(deg)": -86.50279192868463,
        "Mean Anomaly(deg)": -301.4397221210158,
        "RAAN(deg)": 324.9911720901712,
        "Satellite Name": "Constellation 1 1433",
        "Satellite Number": 1433,
        "Semi-Major Axis(m)": 7083131.272910544,
        "Time(s)": 156
    },
    {
        "Altitude(m)": 705597.7777462096,
        "Argument of Periapsis(deg)": 0.00941183698052868,
        "Eccentricity": 0.0,
        "Inclination(deg)": 45.0,
        "Latitude(deg)": 37.27191011685265,
        "Longitude(deg)": -86.43939791591293,
        "Mean Anomaly(deg)": -301.37902098076586,
        "RAAN(deg)": 324.9911155010056,
        "Satellite Name": "Constellation 1 1433",
        "Satellite Number": 1433,
        "Semi-Major Axis(m)": 7083131.272910544,
        "Time(s)": 157
    },
    {
        "Altitude(m)": 705603.4962112197,
        "Argument of Periapsis(deg)": 0.009471784986774088,
        "Eccentricity": 0.0,
        "Inclination(deg)": 45.0,
        "Latitude(deg)": 37.300038587347586,
        "Longitude(deg)": -86.37595366082316,
        "Mean Anomaly(deg)": -301.318319840516,
        "RAAN(deg)": 324.99105891184,
        "Satellite Name": "Constellation 1 1433",
        "Satellite Number": 1433,
        "Semi-Major Axis(m)": 7083131.272910544,
        "Time(s)": 158
    },
    {
        "Altitude(m)": 705609.2102719824,
        "Argument of Periapsis(deg)": 0.009531732993019492,
        "Eccentricity": 0.0,
        "Inclination(deg)": 45.0,
        "Latitude(deg)": 37.32812834931284,
        "Longitude(deg)": -86.31245914379069,
        "Mean Anomaly(deg)": -301.25761870026605,
        "RAAN(deg)": 324.99100232267443,
        "Satellite Name": "Constellation 1 1433",
        "Satellite Number": 1433,
        "Semi-Major Axis(m)": 7083131.272910544,
        "Time(s)": 159
    },
    {
        "Altitude(m)": 705614.9198930083,
        "Argument of Periapsis(deg)": 0.009591680999264898,
        "Eccentricity": 0.0,
        "Inclination(deg)": 45.0,
        "Latitude(deg)": 37.356179335385015,
        "Longitude(deg)": -86.24891434549683,
        "Mean Anomaly(deg)": -301.1969175600162,
        "RAAN(deg)": 324.9909457335089,
        "Satellite Name": "Constellation 1 1433",
        "Satellite Number": 1433,
        "Semi-Major Axis(m)": 7083131.272910544,
        "Time(s)": 160
    },
    {
        "Altitude(m)": 705620.6250388552,
        "Argument of Periapsis(deg)": 0.009651629005510304,
        "Eccentricity": 0.0,
        "Inclination(deg)": 45.0,
        "Latitude(deg)": 37.384191478157604,
        "Longitude(deg)": -86.18531924692981,
        "Mean Anomaly(deg)": -301.13621641976624,
        "RAAN(deg)": 324.99088914434327,
        "Satellite Name": "Constellation 1 1433",
        "Satellite Number": 1433,
        "Semi-Major Axis(m)": 7083131.272910544,
        "Time(s)": 161
    },
    {
        "Altitude(m)": 705626.3256740982,
        "Argument of Periapsis(deg)": 0.00971157701175571,
        "Eccentricity": 0.0,
        "Inclination(deg)": 45.0,
        "Latitude(deg)": 37.4121647101813,
        "Longitude(deg)": -86.12167382938699,
        "Mean Anomaly(deg)": -301.07551527951637,
        "RAAN(deg)": 324.99083255517775,
        "Satellite Name": "Constellation 1 1433",
        "Satellite Number": 1433,
        "Semi-Major Axis(m)": 7083131.272910544,
        "Time(s)": 162
    },
    {
        "Altitude(m)": 705632.0217633784,
        "Argument of Periapsis(deg)": 0.009771525018001118,
        "Eccentricity": 0.0,
        "Inclination(deg)": 45.0,
        "Latitude(deg)": 37.440098963964296,
        "Longitude(deg)": -86.05797824257235,
        "Mean Anomaly(deg)": -301.0148141392665,
        "RAAN(deg)": 324.99077596601217,
        "Satellite Name": "Constellation 1 1433",
        "Satellite Number": 1433,
        "Semi-Major Axis(m)": 7083131.272910544,
        "Time(s)": 163
    },
    {
        "Altitude(m)": 705637.7132713511,
        "Argument of Periapsis(deg)": 0.00983147302424652,
        "Eccentricity": 0.0,
        "Inclination(deg)": 45.0,
        "Latitude(deg)": 37.4679941719729,
        "Longitude(deg)": -85.994232132211,
        "Mean Anomaly(deg)": -300.95411299901656,
        "RAAN(deg)": 324.9907193768466,
        "Satellite Name": "Constellation 1 1433",
        "Satellite Number": 1433,
        "Semi-Major Axis(m)": 7083131.272910544,
        "Time(s)": 164
    },
    {
        "Altitude(m)": 705643.400162722,
        "Argument of Periapsis(deg)": 0.009891421030491928,
        "Eccentricity": 0.0,
        "Inclination(deg)": 45.0,
        "Latitude(deg)": 37.49585026663158,
        "Longitude(deg)": -85.9304356486315,
        "Mean Anomaly(deg)": -300.8934118587666,
        "RAAN(deg)": 324.99066278768106,
        "Satellite Name": "Constellation 1 1433",
        "Satellite Number": 1433,
        "Semi-Major Axis(m)": 7083131.272910544,
        "Time(s)": 165
    },
    {
        "Altitude(m)": 705649.0824022315,
        "Argument of Periapsis(deg)": 0.009951369036737332,
        "Eccentricity": 0.0,
        "Inclination(deg)": 45.0,
        "Latitude(deg)": 37.52366718032348,
        "Longitude(deg)": -85.86658877438009,
        "Mean Anomaly(deg)": -300.83271071851675,
        "RAAN(deg)": 324.9906061985154,
        "Satellite Name": "Constellation 1 1433",
        "Satellite Number": 1433,
        "Semi-Major Axis(m)": 7083131.272910544,
        "Time(s)": 166
    },
    {
        "Altitude(m)": 705654.7599546596,
        "Argument of Periapsis(deg)": 0.010011317042982738,
        "Eccentricity": 0.0,
        "Inclination(deg)": 45.0,
        "Latitude(deg)": 37.55144484539092,
        "Longitude(deg)": -85.8026914923187,
        "Mean Anomaly(deg)": -300.7720095782669,
        "RAAN(deg)": 324.9905496093499,
        "Satellite Name": "Constellation 1 1433",
        "Satellite Number": 1433,
        "Semi-Major Axis(m)": 7083131.272910544,
        "Time(s)": 167
    },
    {
        "Altitude(m)": 705660.4327848192,
        "Argument of Periapsis(deg)": 0.010071265049228144,
        "Eccentricity": 0.0,
        "Inclination(deg)": 45.0,
        "Latitude(deg)": 37.5791831941355,
        "Longitude(deg)": -85.73874378562668,
        "Mean Anomaly(deg)": -300.71130843801694,
        "RAAN(deg)": 324.9904930201843,
        "Satellite Name": "Constellation 1 1433",
        "Satellite Number": 1433,
        "Semi-Major Axis(m)": 7083131.272910544,
        "Time(s)": 168
    },
    {
        "Altitude(m)": 705666.1008575776,
        "Argument of Periapsis(deg)": 0.01013121305547355,
        "Eccentricity": 0.0,
        "Inclination(deg)": 45.0,
        "Latitude(deg)": 37.60688215881863,
        "Longitude(deg)": -85.67474563780198,
        "Mean Anomaly(deg)": -300.65060729776707,
        "RAAN(deg)": 324.99043643101874,
        "Satellite Name": "Constellation 1 1433",
        "Satellite Number": 1433,
        "Semi-Major Axis(m)": 7083131.272910544,
        "Time(s)": 169
    },
    {
        "Altitude(m)": 705671.7641378242,
        "Argument of Periapsis(deg)": 0.010191161061718957,
        "Eccentricity": 0.0,
        "Inclination(deg)": 45.0,
        "Latitude(deg)": 37.63454167166193,
        "Longitude(deg)": -85.6106970326628,
        "Mean Anomaly(deg)": -300.5899061575172,
        "RAAN(deg)": 324.99037984185316,
        "Satellite Name": "Constellation 1 1433",
        "Satellite Number": 1433,
        "Semi-Major Axis(m)": 7083131.272910544,
        "Time(s)": 170
    }
]